{
"type": "FeatureCollection",
"name": "la_2025_hurst",
"crs": { "type": "name", "properties": { "name": "urn:ogc:def:crs:OGC:1.3:CRS84" } },
"features": [
{ "type": "Feature", "properties": { "OBJECTID": 36411, "poly_SourceOID": 312, "poly_IncidentName": "Hurst", "poly_FeatureCategory": "Wildfire Daily Fire Perimeter", "poly_MapMethod": "Mixed Methods", "poly_GISAcres": 799.8176376199292, "poly_DeleteThis": "No", "poly_FeatureAccess": "Public", "poly_FeatureStatus": "Approved", "poly_IsVisible": "Yes", "poly_CreateDate": 1736565804000, "poly_DateCurrent": 1736565904000, "poly_PolygonDateTime": null, "poly_IRWINID": "{F4E810AD-CDF3-4ED4-B63F-03D43785BA7B}", "poly_FORID": null, "poly_Acres_AutoCalc": 799.81463481751609, "poly_SourceGlobalID": "{5884A793-1B89-4BA6-929E-7907499B79AA}", "poly_Source": "2025 NIFS", "attr_SourceOID": 33046053, "attr_ABCDMisc": null, "attr_ADSPermissionState": "DEFAULT", "attr_CalculatedAcres": null, "attr_ContainmentDateTime": null, "attr_ControlDateTime": null, "attr_CreatedBySystem": "IROC", "attr_IncidentSize": 799, "attr_DiscoveryAcres": null, "attr_DispatchCenterID": "CAXLAC", "attr_EstimatedCostToDate": 3123000, "attr_FinalAcres": null, "attr_FFReportApprovedByTitle": null, "attr_FFReportApprovedByUnit": null, "attr_FFReportApprovedDate": null, "attr_FireBehaviorGeneral": "Minimal", "attr_FireBehaviorGeneral1": null, "attr_FireBehaviorGeneral2": "Spotting", "attr_FireBehaviorGeneral3": "Uphill Runs", "attr_FireCause": "Undetermined", "attr_FireCauseGeneral": null, "attr_FireCauseSpecific": null, "attr_FireCode": null, "attr_FireDepartmentID": null, "attr_FireDiscoveryDateTime": 1736317800000, "attr_FireMgmtComplexity": null, "attr_FireOutDateTime": null, "attr_FireStrategyConfinePercent": 0, "attr_FireStrategyFullSuppPrcnt": 100, "attr_FireStrategyMonitorPercent": 0, "attr_FireStrategyPointZonePrcnt": 0, "attr_FSJobCode": null, "attr_FSOverrideCode": null, "attr_GACC": "OSCC", "attr_ICS209ReportDateTime": 1737076808000, "attr_ICS209RptForTimePeriodFrom": 1737036000000, "attr_ICS209RptForTimePeriodTo": 1737075600000, "attr_ICS209ReportStatus": "F", "attr_IncidentManagementOrg": "Type 3 IC", "attr_IncidentName": "HURST", "attr_IncidentShortDescription": "Sylmar", "attr_IncidentTypeCategory": "WF", "attr_IncidentTypeKind": "FI", "attr_InitialLatitude": null, "attr_InitialLongitude": null, "attr_InitialResponseAcres": null, "attr_InitialResponseDateTime": null, "attr_IrwinID": "{F4E810AD-CDF3-4ED4-B63F-03D43785BA7B}", "attr_IsFireCauseInvestigated": null, "attr_IsFireCodeRequested": 0, "attr_IsFSAssisted": null, "attr_IsMultiJurisdictional": null, "attr_IsQuarantined": 0, "attr_IsReimbursable": null, "attr_IsTrespass": null, "attr_IsUnifiedCommand": 0, "attr_IsValid": 1, "attr_LocalIncidentIdentifier": "0003294", "attr_ModifiedBySystem": "ics209", "attr_PercentContained": 100, "attr_PercentPerimToBeContained": 100, "attr_POOCity": null, "attr_POOCounty": "Los Angeles", "attr_POODispatchCenterID": "CALACC", "attr_POOFips": "06037", "attr_POOJurisdictionalAgency": null, "attr_POOJurisdictionalUnit": null, "attr_POOJurisdictUnitParentUnit": null, "attr_POOLandownerCategory": "Private", "attr_POOLandownerKind": "Private", "attr_POOLegalDescPrincipalMerid": null, "attr_POOLegalDescQtr": null, "attr_POOLegalDescQtrQtr": null, "attr_POOLegalDescRange": null, "attr_POOLegalDescSection": null, "attr_POOLegalDescTownship": null, "attr_POOPredictiveServiceAreaID": "SC09", "attr_POOProtectingAgency": "C&L", "attr_POOProtectingUnit": "CALFD", "attr_POOState": "US-CA", "attr_PredominantFuelGroup": null, "attr_PredominantFuelModel": null, "attr_PrimaryFuelModel": "Chaparral (6 feet)", "attr_SecondaryFuelModel": "Brush (2 feet)", "attr_TotalIncidentPersonnel": 67, "attr_UniqueFireIdentifier": "2025-CALFD-0003294", "attr_FORID": null, "attr_WFDSSDecisionStatus": "No Decision", "attr_EstimatedFinalCost": null, "attr_OrganizationalAssessment": null, "attr_StratDecisionPublishDate": null, "attr_CreatedOnDateTime_dt": 1736319199790, "attr_ModifiedOnDateTime_dt": 1737076808400, "attr_Source": "IRWIN", "attr_IsCpxChild": 0, "attr_CpxName": null, "attr_CpxID": null, "attr_SourceGlobalID": "{D69D1FE4-0B5E-43AF-89FF-BD4757EF0DFA}", "GlobalID": "a54b079e-9b60-497f-bbb6-672f21184aa0", "Shape__Area": 0.00031708027313470666, "Shape__Length": 0.10464690139737476, "attr_IncidentComplexityLevel": "Type 3 Incident" }, "geometry": { "type": "Polygon", "coordinates": [ [ [ -118.474575136040002, 34.342550799359501 ], [ -118.474335177019, 34.342470273205002 ], [ -118.474036319926, 34.342546435659102 ], [ -118.473680907477004, 34.3425639020763 ], [ -118.473435462224003, 34.342449321034202 ], [ -118.473268340542006, 34.342288942597399 ], [ -118.473015626315004, 34.342162206596598 ], [ -118.472795315987, 34.342017736635697 ], [ -118.472509190349996, 34.341858773593302 ], [ -118.472227557761002, 34.341753202780602 ], [ -118.472050814379998, 34.341605628715399 ], [ -118.471911509129995, 34.341433984595298 ], [ -118.471558335999006, 34.341273426374599 ], [ -118.471215617623997, 34.3412371521136 ], [ -118.470973663107003, 34.341373842961303 ], [ -118.470633499914996, 34.341337832765497 ], [ -118.470563778577002, 34.341174481269597 ], [ -118.470515285374006, 34.3409716860562 ], [ -118.470627476912995, 34.3406708939361 ], [ -118.470682851532999, 34.340396266115 ], [ -118.470913737277002, 34.3401397222311 ], [ -118.471043814476005, 34.339865259229803 ], [ -118.471169224177999, 34.3396224358506 ], [ -118.471321881025005, 34.339421563575598 ], [ -118.471256007338994, 34.339052602337397 ], [ -118.471119478779997, 34.338787001999897 ], [ -118.470990664338004, 34.338616048041096 ], [ -118.470835945548998, 34.338395111580802 ], [ -118.470579315289001, 34.338242110200902 ], [ -118.470317407793999, 34.338157186762402 ], [ -118.469879739052999, 34.338250331876203 ], [ -118.469546430003007, 34.338195205335303 ], [ -118.469266850004004, 34.338015655318401 ], [ -118.468980954112993, 34.337623211745502 ], [ -118.468859866813006, 34.337313733800201 ], [ -118.468743572758996, 34.337094994975203 ], [ -118.468531831123997, 34.336854826768402 ], [ -118.46838525455, 34.336594859018597 ], [ -118.468276252761001, 34.336381297976402 ], [ -118.468155583550001, 34.3361113530162 ], [ -118.468139650585996, 34.335827942683103 ], [ -118.468143599498006, 34.335500563272099 ], [ -118.468143618425003, 34.335106571666898 ], [ -118.468103087559996, 34.3348518650809 ], [ -118.468060453316994, 34.334511148933998 ], [ -118.468059690618006, 34.3341643066668 ], [ -118.467999367709993, 34.333828884722301 ], [ -118.467992977498, 34.333504663181103 ], [ -118.468041028252003, 34.333160511555597 ], [ -118.468202456645997, 34.332770512917001 ], [ -118.468259389536996, 34.332463156871498 ], [ -118.468426923864996, 34.332125833895503 ], [ -118.468763874722001, 34.331835478249197 ], [ -118.469224691269005, 34.331664410756701 ], [ -118.469602846087994, 34.331667396955702 ], [ -118.469741551077007, 34.331406727265502 ], [ -118.469778979010997, 34.331054769008297 ], [ -118.469804180468998, 34.330753866052099 ], [ -118.469713720013004, 34.330501915802202 ], [ -118.469610942995999, 34.330209770606203 ], [ -118.469609534111996, 34.329910393239501 ], [ -118.469347702606996, 34.329724683211602 ], [ -118.469357241382994, 34.329479816113299 ], [ -118.469540103170999, 34.329186956666398 ], [ -118.469539163792007, 34.328914956951003 ], [ -118.469517291897006, 34.328619310801201 ], [ -118.469513173506002, 34.328412151774302 ], [ -118.469741753178994, 34.328338892623599 ], [ -118.469821469237004, 34.328125990084096 ], [ -118.469769070555998, 34.327900676410501 ], [ -118.469718061696994, 34.327651452637298 ], [ -118.469641740151999, 34.327412466231401 ], [ -118.469730230967997, 34.327277707746198 ], [ -118.470100715423001, 34.327211244858503 ], [ -118.470258259011999, 34.327073099727897 ], [ -118.470323084445994, 34.326817099236997 ], [ -118.470339293902001, 34.326501204375298 ], [ -118.470455141589994, 34.326209697659898 ], [ -118.470716008875002, 34.3260750620504 ], [ -118.470972279525995, 34.326024679803901 ], [ -118.471283042671004, 34.3259896290363 ], [ -118.471632012921006, 34.325964891996598 ], [ -118.471891777097994, 34.325774290357501 ], [ -118.472080536080995, 34.325597267866101 ], [ -118.472423157421005, 34.3254842415677 ], [ -118.472758631496006, 34.325347604720299 ], [ -118.473335650717999, 34.325154213952501 ], [ -118.473616662519007, 34.325046374208902 ], [ -118.473878330274999, 34.324981891220702 ], [ -118.474177793202003, 34.324878589447898 ], [ -118.474549194828995, 34.324695737589998 ], [ -118.474719537289999, 34.324430761303297 ], [ -118.474800128506004, 34.324229611668898 ], [ -118.475010996589006, 34.324079455950702 ], [ -118.475417647019, 34.324002864859303 ], [ -118.475938124406994, 34.323978327679299 ], [ -118.475956041871996, 34.324476194370703 ], [ -118.476110069775999, 34.3245665144131 ], [ -118.476306880341994, 34.324587536442003 ], [ -118.476527433922996, 34.324521633292399 ], [ -118.476681942200997, 34.324486068446497 ], [ -118.476982260273004, 34.324473377555599 ], [ -118.477297370993995, 34.324430814321197 ], [ -118.477510539158999, 34.324279317386797 ], [ -118.477572979678996, 34.324032355296801 ], [ -118.477573771858999, 34.323829082925897 ], [ -118.477639037537003, 34.323560315317799 ], [ -118.477815296019003, 34.323591988944003 ], [ -118.477818084841999, 34.323804370170897 ], [ -118.477816181788995, 34.324062907608798 ], [ -118.478026249506001, 34.324113935629597 ], [ -118.478295013668998, 34.324084007732097 ], [ -118.478589681916006, 34.324099890016001 ], [ -118.478738337926998, 34.324186269207601 ], [ -118.478644029283004, 34.324460235447297 ], [ -118.478639277024001, 34.3246127088644 ], [ -118.478676979834006, 34.324786487812503 ], [ -118.478749843922003, 34.324975339797199 ], [ -118.478871422869005, 34.325019171440999 ], [ -118.478899809517998, 34.325171424986699 ], [ -118.478950781821993, 34.325320984740401 ], [ -118.478976701592998, 34.325532424897197 ], [ -118.479074382543004, 34.325721828386399 ], [ -118.479189897845004, 34.325803881188399 ], [ -118.479337013193998, 34.325953071826198 ], [ -118.479416597836007, 34.326119115918097 ], [ -118.479516121089006, 34.326184373814797 ], [ -118.479651759809997, 34.3262222110708 ], [ -118.479683407023998, 34.326234314082299 ], [ -118.479766056425007, 34.326234023194203 ], [ -118.479847885390996, 34.326231524787197 ], [ -118.479921490874005, 34.326237394937898 ], [ -118.480088580637002, 34.326241168376903 ], [ -118.480257173379002, 34.326233213562901 ], [ -118.480294253419004, 34.326232798785199 ], [ -118.480954369629004, 34.326206815561697 ], [ -118.481134793505007, 34.326219913166703 ], [ -118.481281219484003, 34.326230542608698 ], [ -118.481291311728995, 34.326231275150597 ], [ -118.481941102598995, 34.326279871446502 ], [ -118.482279589423996, 34.3262244147543 ], [ -118.482739706648005, 34.326110621707997 ], [ -118.483104213776002, 34.325955591432397 ], [ -118.483547941878001, 34.325441909989301 ], [ -118.483766207792002, 34.325043225153401 ], [ -118.483797752095001, 34.3249856047454 ], [ -118.483879669545004, 34.324487106431498 ], [ -118.483965110328995, 34.324375239033898 ], [ -118.484151642829005, 34.324131011460302 ], [ -118.484495895441995, 34.323775872963097 ], [ -118.484907807704005, 34.323661432149898 ], [ -118.484969702502994, 34.323688126996103 ], [ -118.485193723191998, 34.323784743205699 ], [ -118.485242430208999, 34.323805749699403 ], [ -118.485234730420004, 34.324205315949698 ], [ -118.485230479541997, 34.3244259055231 ], [ -118.485229725509001, 34.324465034195001 ], [ -118.485323023760003, 34.324626137293102 ], [ -118.485332192957003, 34.324751033217503 ], [ -118.485342113746, 34.324886174635402 ], [ -118.485337879108002, 34.325105935043403 ], [ -118.485452577402, 34.325407205747297 ], [ -118.485569547175004, 34.325596266843696 ], [ -118.485639561246998, 34.325709432783398 ], [ -118.485822036521, 34.326004370098097 ], [ -118.485826546512996, 34.326011660321498 ], [ -118.485582518532993, 34.326168295072101 ], [ -118.485342474345998, 34.326219175471103 ], [ -118.485316320490995, 34.326224719204198 ], [ -118.485432175216005, 34.326466053626902 ], [ -118.485785473516003, 34.3265886914756 ], [ -118.485800017193995, 34.3265975026303 ], [ -118.486052488316005, 34.326794003348397 ], [ -118.486100012801003, 34.326892996841202 ], [ -118.486102883775999, 34.326898978241402 ], [ -118.486168347225998, 34.327035336899399 ], [ -118.486260110375994, 34.327276352154499 ], [ -118.486416373549005, 34.327308438839502 ], [ -118.486572195083994, 34.327340433835801 ], [ -118.486607528270994, 34.327320616146501 ], [ -118.486758511776003, 34.327235929815103 ], [ -118.486762948917004, 34.327239728167299 ], [ -118.486765815325995, 34.3272318334811 ], [ -118.486815840142, 34.327203774602502 ], [ -118.487033081728001, 34.327186666959498 ], [ -118.487155438125995, 34.327198985705799 ], [ -118.487490122265001, 34.327232679863002 ], [ -118.487616296300999, 34.327274844844702 ], [ -118.487801439090006, 34.327336714877397 ], [ -118.488040854776003, 34.327419813913998 ], [ -118.488230158836998, 34.327602166968802 ], [ -118.488279151509005, 34.327769630452003 ], [ -118.488303362801005, 34.327852389023498 ], [ -118.488315908119006, 34.3278952698765 ], [ -118.488351374659004, 34.327963470214897 ], [ -118.488360641777007, 34.327981289469697 ], [ -118.488500187718998, 34.328088001467101 ], [ -118.488541464693995, 34.3280640687803 ], [ -118.488700037613, 34.328087591332199 ], [ -118.488838489239001, 34.328210997302797 ], [ -118.489017646237002, 34.328276155327202 ], [ -118.489178864088998, 34.328351283591502 ], [ -118.489359737331995, 34.328266481425501 ], [ -118.489410511919999, 34.3280907897662 ], [ -118.489511489853001, 34.327914591367602 ], [ -118.489623586468994, 34.327817626126297 ], [ -118.489856549947007, 34.327747920825402 ], [ -118.490042306630997, 34.327597066710503 ], [ -118.490033728398998, 34.327591526508698 ], [ -118.490013603036004, 34.327583789590399 ], [ -118.489955820416, 34.327538131160203 ], [ -118.489949322507996, 34.327534872656003 ], [ -118.489932251059003, 34.3275348725236 ], [ -118.489915074766998, 34.327517696136397 ], [ -118.489902251223, 34.327504872078897 ], [ -118.489892250533998, 34.327444872666298 ], [ -118.489912250950994, 34.327384872904602 ], [ -118.489921520348005, 34.327333895244998 ], [ -118.489928411159994, 34.327320775438999 ], [ -118.489926468709001, 34.327306678197601 ], [ -118.48991653, 34.327234569302902 ], [ -118.489913743304001, 34.327144741844997 ], [ -118.489887538974997, 34.327099500419699 ], [ -118.489865917822996, 34.327050578092198 ], [ -118.489821956962999, 34.326990137307298 ], [ -118.489732884503994, 34.326929100627098 ], [ -118.489643382061999, 34.326890504961703 ], [ -118.489562901145007, 34.326852029304902 ], [ -118.489504975564998, 34.326813851571899 ], [ -118.489478915343994, 34.3267611290782 ], [ -118.489457122643003, 34.326703898610198 ], [ -118.489502250596999, 34.3266948721894 ], [ -118.489552251245001, 34.326694872067598 ], [ -118.489532250427004, 34.326654872614498 ], [ -118.489462251117004, 34.326564872785198 ], [ -118.489422251006999, 34.326494872328801 ], [ -118.489412250830995, 34.326434871911196 ], [ -118.489452250618996, 34.326354872640898 ], [ -118.489452250056004, 34.326333915752997 ], [ -118.489466220343004, 34.326323935095303 ], [ -118.489492463919007, 34.326327340932203 ], [ -118.489518180478996, 34.326329265220799 ], [ -118.489528657557003, 34.326313539281301 ], [ -118.489545801193998, 34.326299925804399 ], [ -118.489557964905998, 34.326273136655601 ], [ -118.489569944669995, 34.326255636911597 ], [ -118.489570075987999, 34.326255308758697 ], [ -118.489582251073003, 34.326224872063797 ], [ -118.489582250941993, 34.326212772574202 ], [ -118.489582250680996, 34.326174430785201 ], [ -118.489582250395998, 34.326154871864397 ], [ -118.489566675716006, 34.326123722463699 ], [ -118.489558218583994, 34.326102442942101 ], [ -118.489547736673998, 34.326069319297602 ], [ -118.489526903672996, 34.326030376901301 ], [ -118.489515129590998, 34.325993390193297 ], [ -118.489508116115005, 34.325963058724099 ], [ -118.489510359722004, 34.325927141410403 ], [ -118.489497335056001, 34.325901267832499 ], [ -118.489491741460995, 34.325871436429502 ], [ -118.489477156231004, 34.3258448617241 ], [ -118.489465348365002, 34.325817837891201 ], [ -118.489477092065997, 34.325811318673601 ], [ -118.489492259548001, 34.325802898710002 ], [ -118.489512527805999, 34.325792877764798 ], [ -118.489539551904002, 34.325786826305603 ], [ -118.489573068528003, 34.325797316246202 ], [ -118.489611063748995, 34.325812957871598 ], [ -118.489638975225006, 34.325843039027099 ], [ -118.489663859858993, 34.325869638901501 ], [ -118.489691462161005, 34.325909024021499 ], [ -118.489714006643993, 34.325947775383902 ], [ -118.489750333356, 34.325982539226501 ], [ -118.489792226408994, 34.326009464681903 ], [ -118.489838150631996, 34.326026188002899 ], [ -118.489889185354997, 34.326029658910002 ], [ -118.489940703824004, 34.326032563836897 ], [ -118.489981243442003, 34.326063118136901 ], [ -118.490010585074003, 34.3260891016931 ], [ -118.490036735572005, 34.326094463871797 ], [ -118.490091075723996, 34.326095463623197 ], [ -118.490137091839003, 34.326085224671203 ], [ -118.490185618141993, 34.326075089152503 ], [ -118.490233415567005, 34.3260727918912 ], [ -118.490281401247003, 34.326068786366498 ], [ -118.490332758563994, 34.326061236234601 ], [ -118.490381657647006, 34.3260396126636 ], [ -118.490409948747995, 34.326003985177302 ], [ -118.490435034651, 34.325967196810801 ], [ -118.490476021977003, 34.325931879345902 ], [ -118.490524323420004, 34.325910803042902 ], [ -118.490558759978995, 34.325883756218303 ], [ -118.490610947529007, 34.325872759410601 ], [ -118.490663406425995, 34.325855046725799 ], [ -118.490717787042001, 34.325868706834903 ], [ -118.490765634352002, 34.325874900564799 ], [ -118.490815756662002, 34.325881671413001 ], [ -118.490860531308996, 34.325880595856503 ], [ -118.490901620726007, 34.325905402079499 ], [ -118.490943559705002, 34.325925763311503 ], [ -118.490994815574993, 34.325934757306499 ], [ -118.491046225567999, 34.325939290814901 ], [ -118.491098803080007, 34.325931365265497 ], [ -118.491154915937003, 34.325929882203297 ], [ -118.491188616160997, 34.325926573785502 ], [ -118.491239933513995, 34.3259204729641 ], [ -118.491289261185003, 34.3259038002737 ], [ -118.491333936909001, 34.325887036434402 ], [ -118.491382032502997, 34.325885677310801 ], [ -118.491429732468006, 34.3258805201394 ], [ -118.491476729566003, 34.325889952558001 ], [ -118.491528827519005, 34.325887639391198 ], [ -118.491576803062998, 34.325902618859203 ], [ -118.491623662039999, 34.325916418153099 ], [ -118.491625259426002, 34.325916958394501 ], [ -118.491668894038, 34.325931730031598 ], [ -118.491703871287001, 34.325939707669001 ], [ -118.491782251028994, 34.325904872202202 ], [ -118.491872251469999, 34.325864872103601 ], [ -118.491890540301995, 34.325850241355603 ], [ -118.491895850434005, 34.325857273290602 ], [ -118.491904422656006, 34.325849412272198 ], [ -118.491936904027, 34.325828209626799 ], [ -118.491957602265998, 34.3257964402627 ], [ -118.491964254468002, 34.325759129912598 ], [ -118.491953506320996, 34.325722891578003 ], [ -118.491942585746997, 34.3256879353657 ], [ -118.491928108883002, 34.3256502886343 ], [ -118.491912652508006, 34.325612930024597 ], [ -118.491905378471003, 34.325576075925603 ], [ -118.491957458978007, 34.3255810063471 ], [ -118.491988274291998, 34.325617685126097 ], [ -118.492016313994, 34.325650078404401 ], [ -118.492045639519006, 34.325683217811303 ], [ -118.492075204406007, 34.325715780809297 ], [ -118.492108358989995, 34.325748445221102 ], [ -118.492141486205995, 34.325777664367799 ], [ -118.492165494114005, 34.325813233003501 ], [ -118.492169163221007, 34.3258550951073 ], [ -118.492164001101003, 34.3258884006664 ], [ -118.492176649308007, 34.325906686956202 ], [ -118.492191229018999, 34.325921923370203 ], [ -118.492199636704996, 34.325943436386197 ], [ -118.492209139753996, 34.3259666132845 ], [ -118.492221372800998, 34.3259866525921 ], [ -118.492252095528997, 34.326017631837303 ], [ -118.492289761650994, 34.3260492731781 ], [ -118.492305710810001, 34.326069965370998 ], [ -118.492343222204994, 34.326097434187297 ], [ -118.492379116357995, 34.326126759140202 ], [ -118.492416776287996, 34.326153060860896 ], [ -118.492464306594002, 34.326161345291503 ], [ -118.492511709338004, 34.326170273373997 ], [ -118.492550803813998, 34.326176475328801 ], [ -118.492605355047004, 34.326185687802699 ], [ -118.492643893479993, 34.326195717562499 ], [ -118.492668885805003, 34.326195728882098 ], [ -118.492694430225001, 34.326194896617203 ], [ -118.492666924657996, 34.326156222878403 ], [ -118.492650104318002, 34.326099438927599 ], [ -118.492651986661997, 34.326064145943199 ], [ -118.492612251227996, 34.325954871831598 ], [ -118.492617558847002, 34.325920374811297 ], [ -118.492622605715994, 34.325887570659397 ], [ -118.492644118041, 34.325862482670402 ], [ -118.492692397073995, 34.325836022405802 ], [ -118.492739398647004, 34.325811156862102 ], [ -118.492787319593006, 34.325787721214503 ], [ -118.492788400470005, 34.3257871928611 ], [ -118.492828996499995, 34.325758955678999 ], [ -118.492870495532003, 34.325731074694403 ], [ -118.492929705877003, 34.325729443215302 ], [ -118.492979030060994, 34.325711225770497 ], [ -118.493030864286993, 34.325709334775198 ], [ -118.493070626397994, 34.325678320325899 ], [ -118.493108650478007, 34.325661471731799 ], [ -118.493120633550006, 34.325637572199099 ], [ -118.493129864189996, 34.3256150343556 ], [ -118.493162470995998, 34.325629681715199 ], [ -118.493187004297994, 34.325627657073397 ], [ -118.493205039144001, 34.325613784394299 ], [ -118.493229418547003, 34.325588825111197 ], [ -118.493270510840006, 34.325585213308003 ], [ -118.493286155918994, 34.3256030630683 ], [ -118.493317891901, 34.325612612687998 ], [ -118.493349977557997, 34.325625640642201 ], [ -118.493371549475, 34.325641210605703 ], [ -118.493361231931999, 34.325658072875299 ], [ -118.493376794900996, 34.3256780531907 ], [ -118.493437035704005, 34.325670240170297 ], [ -118.493492445949002, 34.325676363865902 ], [ -118.493538906929999, 34.32568082113 ], [ -118.493587486332999, 34.3256871062475 ], [ -118.493629978586, 34.325704492173202 ], [ -118.493676769296997, 34.325699459089797 ], [ -118.493730257299006, 34.325690229285698 ], [ -118.493781051381006, 34.325700411114703 ], [ -118.493825797434994, 34.3257004219303 ], [ -118.493877060817994, 34.325695529706998 ], [ -118.493924156095005, 34.325701038011204 ], [ -118.493928584597001, 34.325701556025699 ], [ -118.493977245479002, 34.325708129575098 ], [ -118.494031222209998, 34.325714524355 ], [ -118.494085336951002, 34.325722226957403 ], [ -118.494101126903004, 34.325705460137897 ], [ -118.494099145337998, 34.325676288556203 ], [ -118.494125271395006, 34.325671868219601 ], [ -118.494154739023998, 34.325681464341798 ], [ -118.494177576536998, 34.325672629219298 ], [ -118.494188913871994, 34.325642812840996 ], [ -118.494212221159003, 34.325600147880799 ], [ -118.494221576704007, 34.325558759328402 ], [ -118.494282394245005, 34.325561573859702 ], [ -118.494326666703003, 34.325574557430002 ], [ -118.494369941757, 34.325592282376597 ], [ -118.494413503934993, 34.325596209885902 ], [ -118.494416190820004, 34.325596452574302 ], [ -118.494459008896996, 34.325571691674 ], [ -118.494484253482995, 34.3255391110376 ], [ -118.494529061684005, 34.325516233961999 ], [ -118.494568931657, 34.325487894668299 ], [ -118.494603280902993, 34.3254589094228 ], [ -118.494637100440997, 34.3254402698972 ], [ -118.494665729491004, 34.325447164371703 ], [ -118.494684099083997, 34.325478065051399 ], [ -118.494701497476996, 34.325519378652302 ], [ -118.494719819259004, 34.325559248753798 ], [ -118.494751925928, 34.325592306897697 ], [ -118.494809112173002, 34.325571934337098 ], [ -118.494832969513993, 34.325555590891703 ], [ -118.494848047199, 34.325523896639901 ], [ -118.494850414249001, 34.325477090063202 ], [ -118.494842459140003, 34.325452343809999 ], [ -118.494896350136997, 34.325438230841499 ], [ -118.494942264146005, 34.325443999887497 ], [ -118.494972252348006, 34.325434867557803 ], [ -118.494972251928004, 34.325384871542099 ], [ -118.494992252122003, 34.325334872006401 ], [ -118.495022252160993, 34.325274872214898 ], [ -118.495072252542997, 34.325224871867498 ], [ -118.495122251892994, 34.325164872098398 ], [ -118.495160554373001, 34.325097842985997 ], [ -118.495162251596994, 34.3250948719988 ], [ -118.495182251724003, 34.325034872129599 ], [ -118.495202251945003, 34.324964871967197 ], [ -118.495222252253001, 34.324884871509298 ], [ -118.495252252501999, 34.324774871992801 ], [ -118.495282252129002, 34.324714872098902 ], [ -118.495342251740993, 34.324654871325201 ], [ -118.495442252033001, 34.324584872048902 ], [ -118.495542252099995, 34.324524871168499 ], [ -118.495612251837997, 34.324494872017297 ], [ -118.495672251808998, 34.324484871626801 ], [ -118.495696166772007, 34.324480088346498 ], [ -118.495722252144006, 34.324474871233598 ], [ -118.495714747292993, 34.324460612546197 ], [ -118.495721909938993, 34.324453104941902 ], [ -118.495733769946995, 34.324433653381803 ], [ -118.495707917958995, 34.3244148043648 ], [ -118.495684154825994, 34.324384788266002 ], [ -118.495666682481001, 34.324347722682603 ], [ -118.495654119891, 34.3243124946191 ], [ -118.495632323351998, 34.324268102876601 ], [ -118.495616548176002, 34.324224321242802 ], [ -118.495599824327002, 34.324183080599497 ], [ -118.495593585522002, 34.324156687681104 ], [ -118.495583037681001, 34.324113088388003 ], [ -118.495586078119004, 34.324072818053601 ], [ -118.495607245250994, 34.3240495600526 ], [ -118.495616563994005, 34.324028960108897 ], [ -118.495646061759004, 34.324002651639503 ], [ -118.495657265700999, 34.323977264276401 ], [ -118.495671291581999, 34.323948013069597 ], [ -118.495699705139998, 34.323955010823603 ], [ -118.495718399311997, 34.323985142309901 ], [ -118.495729529984999, 34.324006525080598 ], [ -118.495731271395996, 34.3240285080851 ], [ -118.495762332070001, 34.324065091774301 ], [ -118.495788070483002, 34.3240812361934 ], [ -118.495790522972001, 34.324085545287602 ], [ -118.495805188527001, 34.324111310870897 ], [ -118.495829907845007, 34.324138676092701 ], [ -118.495862588286997, 34.324157876309997 ], [ -118.495889666468997, 34.324199785821399 ], [ -118.495915178263004, 34.324235219367701 ], [ -118.495930646239003, 34.324272510921404 ], [ -118.495943592350002, 34.3243041197384 ], [ -118.495980023195997, 34.324326214764199 ], [ -118.496009013527996, 34.324353242241699 ], [ -118.496020236527002, 34.324380714694897 ], [ -118.495971425243994, 34.324382263735501 ], [ -118.495958661535994, 34.324422588224401 ], [ -118.496006444965005, 34.324453171716598 ], [ -118.496035977817002, 34.324478265749299 ], [ -118.496056529851998, 34.324512608292203 ], [ -118.496078239891006, 34.3245469922011 ], [ -118.496098151010997, 34.324571541431297 ], [ -118.496120221989003, 34.324600924975101 ], [ -118.496138680959007, 34.324629559766002 ], [ -118.496153816486995, 34.324668669394498 ], [ -118.496177295246, 34.324690494835998 ], [ -118.496212673293996, 34.324697062185898 ], [ -118.496257143557997, 34.324708219721003 ], [ -118.496261911057999, 34.324736757334001 ], [ -118.496262355786001, 34.324739421213799 ], [ -118.496275857281006, 34.324756158077101 ], [ -118.496297352721996, 34.324746137652298 ], [ -118.496317024337998, 34.324758153358601 ], [ -118.496326171573003, 34.3247766878916 ], [ -118.496330825433006, 34.324802189217202 ], [ -118.496333692237997, 34.324822460940801 ], [ -118.496320374370995, 34.324837378604798 ], [ -118.496342395583, 34.324839708839399 ], [ -118.496334482625997, 34.324866835836303 ], [ -118.496368883764006, 34.324885323933003 ], [ -118.496385064855005, 34.324912574013403 ], [ -118.496399966840002, 34.324939124960203 ], [ -118.49641504089, 34.324974923135798 ], [ -118.496410770566996, 34.325004610052297 ], [ -118.496434649785996, 34.325029604375104 ], [ -118.496474002794997, 34.325051202258102 ], [ -118.496510204732004, 34.325071650952196 ], [ -118.496524120363006, 34.325068503520001 ], [ -118.496544638995005, 34.325063861977398 ], [ -118.496569502918007, 34.325081535976899 ], [ -118.496582076924994, 34.325102611332497 ], [ -118.496588353098005, 34.3251216723177 ], [ -118.496560731472002, 34.325146787070601 ], [ -118.496554529727007, 34.325155775627998 ], [ -118.496536093323996, 34.325182495651703 ], [ -118.496535662100996, 34.325222090922203 ], [ -118.496543728461006, 34.325245480211798 ], [ -118.496513436114, 34.3252640486063 ], [ -118.496494761918001, 34.325283705357599 ], [ -118.496482269040996, 34.325317435675203 ], [ -118.496453255627003, 34.325331653014999 ], [ -118.496436688838997, 34.325355760307097 ], [ -118.496450536226007, 34.325378119690001 ], [ -118.496469319737002, 34.325397986903397 ], [ -118.496441839989004, 34.325386580604203 ], [ -118.496404023186997, 34.325385705623297 ], [ -118.496374157342004, 34.325398737296297 ], [ -118.496372913209001, 34.325424736087101 ], [ -118.496369611855002, 34.325426099649697 ], [ -118.496357314164001, 34.325419163505302 ], [ -118.496329036545006, 34.3253941185421 ], [ -118.496316715459002, 34.325374995171501 ], [ -118.496323378057994, 34.325373512675398 ], [ -118.496327786459005, 34.325337974336598 ], [ -118.496331380529, 34.325295623832602 ], [ -118.496341725140994, 34.325271286904297 ], [ -118.496318187756003, 34.325247173159802 ], [ -118.496307088484002, 34.325226802185902 ], [ -118.496282549387999, 34.325218742410399 ], [ -118.496258696579005, 34.325216971238902 ], [ -118.496236450264007, 34.325192706808302 ], [ -118.496227766836, 34.325166575636999 ], [ -118.496240478019004, 34.325137234997598 ], [ -118.496201469650003, 34.325116374352199 ], [ -118.496161322239004, 34.325113857953603 ], [ -118.496144521646002, 34.325084103908303 ], [ -118.496105283708005, 34.325091096793798 ], [ -118.496062617155005, 34.325095537058601 ], [ -118.496066897060004, 34.325135125803001 ], [ -118.496032819281993, 34.325149674811101 ], [ -118.496014919445003, 34.325171067725499 ], [ -118.495991114988996, 34.325190518106702 ], [ -118.495971420980993, 34.325212165923702 ], [ -118.495971632462997, 34.325242756324698 ], [ -118.495960458370007, 34.325266125094799 ], [ -118.495938013816996, 34.325275801277499 ], [ -118.495898407916002, 34.325284463927197 ], [ -118.495866776225995, 34.325294791676498 ], [ -118.495845576869002, 34.325311142365102 ], [ -118.495821225742006, 34.325336263010101 ], [ -118.495792600284005, 34.325348094052799 ], [ -118.495757020799005, 34.325358969219003 ], [ -118.495731362249003, 34.325374302199997 ], [ -118.495705221604993, 34.325394377050998 ], [ -118.495687513147999, 34.325408659113798 ], [ -118.495677827758001, 34.3254260869302 ], [ -118.495664853332002, 34.325448436910101 ], [ -118.495656120728, 34.325470266748702 ], [ -118.495663438565003, 34.325499754577699 ], [ -118.495662293939006, 34.3255167359398 ], [ -118.495661592302, 34.325527156023597 ], [ -118.495653795539994, 34.325552342116197 ], [ -118.495646188845001, 34.325575719030901 ], [ -118.495632746588001, 34.325597860950197 ], [ -118.495613478996006, 34.325615450203102 ], [ -118.495583829241994, 34.325625812964198 ], [ -118.495565778637996, 34.325640758390797 ], [ -118.495529827515995, 34.325641622005499 ], [ -118.495498638846001, 34.325651170420898 ], [ -118.495475186595996, 34.325659758862997 ], [ -118.495453029483002, 34.325667868610701 ], [ -118.495421228468999, 34.3256686876571 ], [ -118.495399710021999, 34.325682503119502 ], [ -118.495395519618, 34.325707084086098 ], [ -118.495405417688005, 34.325723869156803 ], [ -118.495412228784005, 34.325742174710101 ], [ -118.495410460296995, 34.325761930268598 ], [ -118.495404631484007, 34.325788453675202 ], [ -118.495404098758996, 34.325813785812201 ], [ -118.495429193497998, 34.325827464775102 ], [ -118.495440080693001, 34.325849480667699 ], [ -118.495447882891995, 34.325871891305603 ], [ -118.495439937502994, 34.325891206848098 ], [ -118.495427667160001, 34.325911237917197 ], [ -118.495408888567994, 34.325922355693997 ], [ -118.495398319803002, 34.325943844973303 ], [ -118.495382875215, 34.3259635368251 ], [ -118.495375988733997, 34.325980743660097 ], [ -118.495371450942997, 34.3260004149991 ], [ -118.495350487427004, 34.326011641915997 ], [ -118.495335532501002, 34.326029603337901 ], [ -118.495330359560995, 34.326057013262698 ], [ -118.495324599263995, 34.3260784216003 ], [ -118.495319673628998, 34.326098988261798 ], [ -118.495324927187994, 34.326116715391002 ], [ -118.495325479154005, 34.326117978210199 ], [ -118.495333417069006, 34.326136138152798 ], [ -118.495357004032996, 34.3261511862354 ], [ -118.495393658203, 34.326163695068303 ], [ -118.495367210154001, 34.326165112725597 ], [ -118.495362209698001, 34.326188906972497 ], [ -118.495368807949006, 34.326215607425397 ], [ -118.495346326790994, 34.326248927638197 ], [ -118.495353537965997, 34.326272286808297 ], [ -118.495371183776001, 34.326283892929901 ], [ -118.495374869361001, 34.3263059600609 ], [ -118.495398967792994, 34.326312350362002 ], [ -118.495426157419004, 34.326315922312403 ], [ -118.495410904199005, 34.326337766355401 ], [ -118.495390826239003, 34.326347249136603 ], [ -118.495370939599994, 34.326356391024703 ], [ -118.495349061431, 34.326354744802302 ], [ -118.495326058619, 34.326357674256499 ], [ -118.495332677579, 34.326375342736299 ], [ -118.495314838694995, 34.326390403567402 ], [ -118.495314115870997, 34.326416578636099 ], [ -118.495313711467006, 34.326435375989902 ], [ -118.495289458990001, 34.326427093552603 ], [ -118.495265577335999, 34.326418804272997 ], [ -118.495280826463997, 34.326443173264501 ], [ -118.495268809077004, 34.326459580678303 ], [ -118.495240717894006, 34.326471415001897 ], [ -118.495233583049995, 34.326490461774497 ], [ -118.495222904534003, 34.326506207199898 ], [ -118.495228571561, 34.326513807000197 ], [ -118.495230501506995, 34.326513047340697 ], [ -118.495228456741998, 34.326509413301103 ], [ -118.495231466487994, 34.3265126670603 ], [ -118.495245647258002, 34.326527996060904 ], [ -118.495259885945003, 34.326544785978399 ], [ -118.495254683392005, 34.326565221895699 ], [ -118.495235144350005, 34.3265739762546 ], [ -118.495213892422996, 34.326581009958304 ], [ -118.495216247453996, 34.326603074899097 ], [ -118.495225234903003, 34.326621549697698 ], [ -118.495208775511003, 34.326635016183502 ], [ -118.495231844098996, 34.326637967903501 ], [ -118.495235194497994, 34.326658747124299 ], [ -118.495233533521002, 34.326681571307702 ], [ -118.495236625146006, 34.326700877050499 ], [ -118.495260030609003, 34.326706391176003 ], [ -118.495270221620004, 34.326718781598998 ], [ -118.495272914636999, 34.326722056425297 ], [ -118.495285415039007, 34.326746631690803 ], [ -118.495291200609003, 34.326764621789003 ], [ -118.495295902807996, 34.3267849744391 ], [ -118.495302721526997, 34.326803907405001 ], [ -118.495307056206997, 34.326825571160498 ], [ -118.495289187305005, 34.326843216604701 ], [ -118.495270228254995, 34.3268579562287 ], [ -118.495253234291994, 34.326872428778998 ], [ -118.495253763495995, 34.326893449376101 ], [ -118.495255187403004, 34.326898056792302 ], [ -118.495259738672999, 34.326912778642502 ], [ -118.495258395161002, 34.326932988631697 ], [ -118.495239104972995, 34.326944354716197 ], [ -118.495224544299006, 34.326960336567097 ], [ -118.495210717533993, 34.326975004921103 ], [ -118.495191229431001, 34.326983137120898 ], [ -118.495167307637004, 34.326988065318297 ], [ -118.495146458405998, 34.327000859306402 ], [ -118.495129191245994, 34.326986389207498 ], [ -118.495108789336001, 34.326999779448201 ], [ -118.495093527164002, 34.326984321736198 ], [ -118.495089243299006, 34.326964775870898 ], [ -118.495102397449003, 34.326979278368199 ], [ -118.495095361384998, 34.326962046949603 ], [ -118.495086932993004, 34.3269592833961 ], [ -118.495082585969001, 34.326960864799297 ], [ -118.495069614559, 34.326964639191097 ], [ -118.495067118831997, 34.326972294694897 ], [ -118.495052955543002, 34.326986936968602 ], [ -118.495027516464006, 34.326981347363301 ], [ -118.495020259601006, 34.326978998515301 ], [ -118.495004077803003, 34.326973759694297 ], [ -118.495007889236007, 34.326951778629699 ], [ -118.494986095901993, 34.326950632794897 ], [ -118.494984269319005, 34.3269322540459 ], [ -118.494986736483995, 34.326914167964503 ], [ -118.494987667361997, 34.326893370285703 ], [ -118.494983440675995, 34.326864026796201 ], [ -118.494970081161, 34.326845263691403 ], [ -118.494973118386, 34.326844414057398 ], [ -118.495001575358998, 34.326830516963 ], [ -118.495003896856005, 34.326822706841099 ], [ -118.495006950321994, 34.326812435805401 ], [ -118.495010649581005, 34.326791146384402 ], [ -118.494987644272001, 34.326780913598803 ], [ -118.494975511760998, 34.326765970261803 ], [ -118.494951029679996, 34.326757582883701 ], [ -118.494956111356004, 34.326734437792801 ], [ -118.494970935355994, 34.326718727133901 ], [ -118.494960126145997, 34.326701325256103 ], [ -118.494942074199002, 34.326682030782401 ], [ -118.494932346902004, 34.326657404551199 ], [ -118.494938918819997, 34.326639943041798 ], [ -118.494925424496998, 34.326618685069803 ], [ -118.494893412509995, 34.3266166493841 ], [ -118.494868424510997, 34.326622253002597 ], [ -118.494842414473993, 34.326621622171899 ], [ -118.494808324190004, 34.326640808891 ], [ -118.494776054238997, 34.326649291918798 ], [ -118.494745922527997, 34.326652666400797 ], [ -118.494713963047005, 34.3266499319232 ], [ -118.494694272852001, 34.326652440677698 ], [ -118.494699078959997, 34.326635287623098 ], [ -118.494669012962007, 34.326621324038101 ], [ -118.494639638484998, 34.326616378357002 ], [ -118.494609883037995, 34.326621448654798 ], [ -118.494590019919997, 34.326631056704699 ], [ -118.494590688079001, 34.326655313118998 ], [ -118.494566434673004, 34.326659906937898 ], [ -118.494544130872995, 34.326668958268698 ], [ -118.494523214148003, 34.326677102191603 ], [ -118.494529405167995, 34.326697354604299 ], [ -118.494529390454005, 34.326716455424197 ], [ -118.494525741518999, 34.326728980950001 ], [ -118.494523948449, 34.326735136867697 ], [ -118.494506055830996, 34.326761674415401 ], [ -118.494487141742994, 34.3267787138006 ], [ -118.494465054185, 34.326770570561997 ], [ -118.494441688484997, 34.326763606555197 ], [ -118.494419951482996, 34.326750782803501 ], [ -118.494396786506002, 34.326743612321501 ], [ -118.494375896573999, 34.326737246037297 ], [ -118.494356565706994, 34.326727860990701 ], [ -118.494330210290997, 34.326738335305897 ], [ -118.494305960055001, 34.326733965371297 ], [ -118.494276375018003, 34.32673149819 ], [ -118.494252967492002, 34.326733131392999 ], [ -118.494230149483997, 34.3267350878209 ], [ -118.494205004055004, 34.326738179914898 ], [ -118.494182084979997, 34.326734460220003 ], [ -118.494163056264, 34.3267213340879 ], [ -118.494146452391007, 34.326703122129103 ], [ -118.494120070559006, 34.326702888231502 ], [ -118.494093280957998, 34.326704930226903 ], [ -118.494079030604993, 34.326719911041103 ], [ -118.494046312867994, 34.326720610377301 ], [ -118.494032176372002, 34.326728966998097 ], [ -118.494016062930001, 34.326734067205798 ], [ -118.493999849917003, 34.326776420829098 ], [ -118.494030238633997, 34.326798105136803 ], [ -118.494086208262004, 34.326824382451598 ], [ -118.494136718887006, 34.326867614888499 ], [ -118.494223157858002, 34.326911320475403 ], [ -118.494268455248005, 34.326958741178103 ], [ -118.494288495640006, 34.326984546116499 ], [ -118.494308048033005, 34.327035883839898 ], [ -118.494322875104004, 34.3270658762004 ], [ -118.494352937947994, 34.327104583165799 ], [ -118.494362143011003, 34.327160041598297 ], [ -118.494402552229005, 34.327194627806499 ], [ -118.494463166122003, 34.327246507089797 ], [ -118.494482963224996, 34.327285077934697 ], [ -118.494492168383005, 34.327340537247601 ], [ -118.494511965523998, 34.327379108083797 ], [ -118.494531925694005, 34.327409167993203 ], [ -118.494567039149999, 34.327452197470301 ], [ -118.494586477164006, 34.327525812700998 ], [ -118.494601126773006, 34.327529492832397 ], [ -118.494609301666003, 34.327541805382999 ], [ -118.494625853946999, 34.3275559714045 ], [ -118.494642304983003, 34.327575367412599 ], [ -118.494647945123006, 34.327610312345101 ], [ -118.494660024422004, 34.327638368459397 ], [ -118.494646876844996, 34.3276660924382 ], [ -118.494651013831003, 34.327669634152997 ], [ -118.494636063737005, 34.327681642235397 ], [ -118.494606697690003, 34.327677768349297 ], [ -118.494577332730998, 34.327673894469903 ], [ -118.494543628298004, 34.327676937940602 ], [ -118.494532949805006, 34.327685515005903 ], [ -118.494532649326999, 34.3277012032122 ], [ -118.494511424793998, 34.327711384588497 ], [ -118.494492369981003, 34.3277181081843 ], [ -118.494452258641999, 34.327726297686802 ], [ -118.494426763535003, 34.327739910962499 ], [ -118.494403271242007, 34.327758780124697 ], [ -118.494375840093994, 34.327763650227503 ], [ -118.494367563962001, 34.327756566749997 ], [ -118.494342436129998, 34.327751005433797 ], [ -118.494329689124996, 34.327757811166101 ], [ -118.494302358159004, 34.327757451248999 ], [ -118.494279198640001, 34.327758890334202 ], [ -118.494272758356004, 34.327765779114202 ], [ -118.494257908357994, 34.327772558044998 ], [ -118.494245194727, 34.327777621034301 ], [ -118.494228308543995, 34.327780885898498 ], [ -118.494207285388001, 34.32778060903 ], [ -118.494182057382005, 34.327780276779798 ], [ -118.494155118513007, 34.3277830550159 ], [ -118.494108760789999, 34.327790958431102 ], [ -118.494083098060003, 34.327790620433397 ], [ -118.494057434243004, 34.327790282415698 ], [ -118.494021342485993, 34.327798320107703 ], [ -118.49399030216, 34.327810681307803 ], [ -118.493974496597005, 34.327831757136799 ], [ -118.493954373459005, 34.327810208060903 ], [ -118.493939383295995, 34.327788727494401 ], [ -118.493888218763004, 34.327779539569804 ], [ -118.493887566406997, 34.327813585042797 ], [ -118.493866627832006, 34.327834593242102 ], [ -118.493855873683003, 34.327859991677599 ], [ -118.493840068075002, 34.327881067486899 ], [ -118.493819211038996, 34.327897818866099 ], [ -118.493783037637002, 34.327910113291999 ], [ -118.493751915689998, 34.327926729433599 ], [ -118.493725599401998, 34.327960436808603 ], [ -118.493689425973002, 34.327972730302903 ], [ -118.493653252515998, 34.327985024686903 ], [ -118.493647711747002, 34.3280062348013 ], [ -118.493586119075005, 34.328005423323297 ], [ -118.493544732127006, 34.328021905065697 ], [ -118.493508558640997, 34.328034198502102 ], [ -118.493462200706006, 34.328042101652997 ], [ -118.493390016814004, 34.3280581775469 ], [ -118.493307404838006, 34.328082629042797 ], [ -118.493260883703996, 34.3280990430261 ], [ -118.493209556962995, 34.3280983666303 ], [ -118.493137536147003, 34.328105930548702 ], [ -118.493065188943007, 34.328130518051303 ], [ -118.493023555963006, 34.3281597664092 ], [ -118.492992107383003, 34.328193405067204 ], [ -118.49298110702, 34.328231571117499 ], [ -118.492965219520002, 34.328256901803499 ], [ -118.492964485160996, 34.328295203161197 ], [ -118.492953241091996, 34.328346135136101 ], [ -118.492968067893997, 34.328376127632097 ], [ -118.492962445296001, 34.328401594512101 ], [ -118.492967088754, 34.328427195802199 ], [ -118.492966272811998, 34.328469752158 ], [ -118.492965456869996, 34.328512308511897 ], [ -118.492934414990998, 34.328524670303203 ], [ -118.492892782840997, 34.328553918616102 ], [ -118.492892211650997, 34.328583708151299 ], [ -118.492871272623006, 34.328604715250599 ], [ -118.492855384994996, 34.328630046812897 ], [ -118.492844547716999, 34.328659701023298 ], [ -118.492788087576997, 34.328658956777197 ], [ -118.492736434042996, 34.328675302887802 ], [ -118.492730892978003, 34.328696512942798 ], [ -118.492750934412996, 34.328722317218002 ], [ -118.492719975118007, 34.328730423058197 ], [ -118.492688443478997, 34.328768317502998 ], [ -118.492631494658994, 34.328793107718603 ], [ -118.492594748284006, 34.328835190368103 ], [ -118.492563462476994, 34.328860317978403 ], [ -118.492537799404005, 34.328859979634203 ], [ -118.492465450230995, 34.328884566724099 ], [ -118.492399949833001, 34.328911471257697 ], [ -118.492392169659993, 34.329111417861903 ], [ -118.492401698299005, 34.3291207577915 ], [ -118.492654273396994, 34.329368317390099 ], [ -118.492670927421003, 34.329741678130198 ], [ -118.492545567966999, 34.330260138936801 ], [ -118.492178166469003, 34.330546454254197 ], [ -118.491744505777007, 34.330764090151 ], [ -118.491355709383996, 34.331011062391298 ], [ -118.490943348342995, 34.331127565148002 ], [ -118.490824246299994, 34.331521555267798 ], [ -118.490661629792001, 34.331811921098897 ], [ -118.490709455369995, 34.332167266946698 ], [ -118.490774718959997, 34.3325147552017 ], [ -118.490803331533996, 34.332787478549101 ], [ -118.490712583672007, 34.333039138816098 ], [ -118.490298751381999, 34.333230271166002 ], [ -118.490059679941993, 34.333517940773099 ], [ -118.490213536453993, 34.333839082161298 ], [ -118.490280912675999, 34.334109146240699 ], [ -118.490328606144004, 34.334542100951197 ], [ -118.489945623834004, 34.334913884221699 ], [ -118.489687401300998, 34.334987498388898 ], [ -118.489355031135005, 34.3349386149712 ], [ -118.489123552511003, 34.334878878692898 ], [ -118.488690449502002, 34.334729419231998 ], [ -118.488221257491006, 34.334762729340703 ], [ -118.487852811802995, 34.335026291929701 ], [ -118.487670137075, 34.335223480731699 ], [ -118.487586529514999, 34.335503414204297 ], [ -118.487232027896994, 34.335878927784698 ], [ -118.487169901954005, 34.336225462576898 ], [ -118.487247256705999, 34.336551620377698 ], [ -118.487396740349993, 34.336870618421599 ], [ -118.487596653964005, 34.337068226911299 ], [ -118.487536890762001, 34.3373814528019 ], [ -118.487267777493997, 34.337798799846198 ], [ -118.486986757357002, 34.338089870202303 ], [ -118.486556644904994, 34.3384772486299 ], [ -118.486358930738007, 34.338759246593703 ], [ -118.486080431895004, 34.3391746373918 ], [ -118.485349397199002, 34.339505190428603 ], [ -118.484824650400995, 34.339533207432801 ], [ -118.484431832710996, 34.339406066803001 ], [ -118.483988893448995, 34.339268835218398 ], [ -118.483594572179001, 34.3391321348265 ], [ -118.483202893574997, 34.338894576831699 ], [ -118.482926391971006, 34.3387284997685 ], [ -118.482354124176993, 34.338757584764302 ], [ -118.481745238478993, 34.339011978140199 ], [ -118.481374721818995, 34.339292595255301 ], [ -118.481172345144003, 34.3396392453703 ], [ -118.481014198639997, 34.339867463076096 ], [ -118.480535141958995, 34.340011851064702 ], [ -118.480069894959996, 34.340154490868201 ], [ -118.479744868534993, 34.340370809320603 ], [ -118.479377661214997, 34.340611062946699 ], [ -118.479011606003994, 34.340757403153198 ], [ -118.478862173021994, 34.341173119063001 ], [ -118.478712774415001, 34.341449144881899 ], [ -118.478535215690002, 34.341739477394903 ], [ -118.478123553073004, 34.341784875668097 ], [ -118.477833112425998, 34.342014177093098 ], [ -118.477424646713999, 34.342204416940397 ], [ -118.477139307917, 34.342304354085101 ], [ -118.476859548530001, 34.342439229672898 ], [ -118.476591956294996, 34.342619409237201 ], [ -118.476333793633003, 34.342718460754803 ], [ -118.476290702496996, 34.342912247121298 ], [ -118.476028425078994, 34.343109537372101 ], [ -118.475665955533998, 34.343193634275501 ], [ -118.475387798064006, 34.343175756695501 ], [ -118.475147905770996, 34.343085096086099 ], [ -118.474987569038007, 34.342928772097203 ], [ -118.474821791544997, 34.342767940796598 ], [ -118.474575136040002, 34.342550799359501 ] ] ] } }
]
}
